SOYUZ-MS 28             
1 66664U 25275A   26002.24250498  .00016008  00000+0  29760-3 0  9994
2 66664  51.6329  40.9506 0007531 330.5355  29.5208 15.49029434  1288
1998-067XS              
1 66906U 98067XS  26001.57282294  .00040223  00000+0  66629-3 0  9997
2 66906  51.6323  43.9794 0002498 307.6709  52.4054 15.51757321  4696
1998-067XT              
1 66907U 98067XT  26002.32113333  .00101206  00000+0  14999-2 0  9990
2 66907  51.6314  39.9772 0003836 354.3754   5.7193 15.54427433  4814
1998-067XU              
1 66908U 98067XU  26002.32004074  .00101734  00000+0  15097-2 0  9998
2 66908  51.6301  39.9686 0003954 349.0827  11.0077 15.54389656  4813
SILVERSAT               
1 66909U 98067XV  26002.12357157  .00113309  00000+0  16502-2 0  9993
2 66909  51.6303  40.9076 0004043 356.0931   4.0028 15.54849160  4780
1998-067XW              
1 66910U 98067XW  26002.31549858  .00102602  00000+0  15065-2 0  9994
2 66910  51.6308  39.9393 0003276 328.9879  31.0918 15.54677962  4814
1998-067XX              
1 66911U 98067XX  26002.30818526  .00123776  00000+0  17575-2 0  9998
2 66911  51.6314  39.8911 0003132 343.0646  17.0240 15.55497722  4804
1998-067XY              
1 66912U 98067XY  26002.13705015  .00078094  00000+0  12053-2 0  9996
2 66912  51.6316  40.9983 0003772 341.2098  18.8753 15.53431066  4771
