CCSDS_OMM_VERS = 2.0
CREATION_DATE  = 
ORIGINATOR     = 

OBJECT_NAME    = SOYUZ-MS 28
OBJECT_ID      = 2025-275A
CENTER_NAME    = EARTH
REF_FRAME      = TEME
TIME_SYSTEM    = UTC
MEAN_ELEMENT_THEORY = SGP/SGP4

EPOCH          = 2026-01-02T05:49:12.430272
MEAN_MOTION    = 15.49029434
ECCENTRICITY   = .00075315
INCLINATION    = 51.6329
RA_OF_ASC_NODE = 40.9506
ARG_OF_PERICENTER = 330.5355
MEAN_ANOMALY   = 29.5208

EPHEMERIS_TYPE = 0
CLASSIFICATION_TYPE = U
NORAD_CAT_ID   = 66664
ELEMENT_SET_NO = 999
REV_AT_EPOCH   = 128
BSTAR          = .2976005E-3
MEAN_MOTION_DOT = .16008E-3
MEAN_MOTION_DDOT = 0

CCSDS_OMM_VERS = 2.0
CREATION_DATE  = 
ORIGINATOR     = 

OBJECT_NAME    = 1998-067XS
OBJECT_ID      = 1998-067XS
CENTER_NAME    = EARTH
REF_FRAME      = TEME
TIME_SYSTEM    = UTC
MEAN_ELEMENT_THEORY = SGP/SGP4

EPOCH          = 2026-01-01T13:44:51.902016
MEAN_MOTION    = 15.51757321
ECCENTRICITY   = .0002498
INCLINATION    = 51.6323
RA_OF_ASC_NODE = 43.9794
ARG_OF_PERICENTER = 307.6709
MEAN_ANOMALY   = 52.4054

EPHEMERIS_TYPE = 0
CLASSIFICATION_TYPE = U
NORAD_CAT_ID   = 66906
ELEMENT_SET_NO = 999
REV_AT_EPOCH   = 469
BSTAR          = .66629E-3
MEAN_MOTION_DOT = .40223E-3
MEAN_MOTION_DDOT = 0

CCSDS_OMM_VERS = 2.0
CREATION_DATE  = 
ORIGINATOR     = 

OBJECT_NAME    = 1998-067XT
OBJECT_ID      = 1998-067XT
CENTER_NAME    = EARTH
REF_FRAME      = TEME
TIME_SYSTEM    = UTC
MEAN_ELEMENT_THEORY = SGP/SGP4

EPOCH          = 2026-01-02T07:42:25.919712
MEAN_MOTION    = 15.54427433
ECCENTRICITY   = .0003836
INCLINATION    = 51.6314
RA_OF_ASC_NODE = 39.9772
ARG_OF_PERICENTER = 354.3754
MEAN_ANOMALY   = 5.7193

EPHEMERIS_TYPE = 0
CLASSIFICATION_TYPE = U
NORAD_CAT_ID   = 66907
ELEMENT_SET_NO = 999
REV_AT_EPOCH   = 481
BSTAR          = .14999297E-2
MEAN_MOTION_DOT = .101206E-2
MEAN_MOTION_DDOT = 0

CCSDS_OMM_VERS = 2.0
CREATION_DATE  = 
ORIGINATOR     = 

OBJECT_NAME    = 1998-067XU
OBJECT_ID      = 1998-067XU
CENTER_NAME    = EARTH
REF_FRAME      = TEME
TIME_SYSTEM    = UTC
MEAN_ELEMENT_THEORY = SGP/SGP4

EPOCH          = 2026-01-02T07:40:51.519936
MEAN_MOTION    = 15.54389656
ECCENTRICITY   = .00039546
INCLINATION    = 51.6301
RA_OF_ASC_NODE = 39.9686
ARG_OF_PERICENTER = 349.0827
MEAN_ANOMALY   = 11.0077

EPHEMERIS_TYPE = 0
CLASSIFICATION_TYPE = U
NORAD_CAT_ID   = 66908
ELEMENT_SET_NO = 999
REV_AT_EPOCH   = 481
BSTAR          = .15096618E-2
MEAN_MOTION_DOT = .101734E-2
MEAN_MOTION_DDOT = 0

CCSDS_OMM_VERS = 2.0
CREATION_DATE  = 
ORIGINATOR     = 

OBJECT_NAME    = SILVERSAT
OBJECT_ID      = 1998-067XV
CENTER_NAME    = EARTH
REF_FRAME      = TEME
TIME_SYSTEM    = UTC
MEAN_ELEMENT_THEORY = SGP/SGP4

EPOCH          = 2026-01-02T02:57:56.583648
MEAN_MOTION    = 15.54849160
ECCENTRICITY   = .0004043
INCLINATION    = 51.6303
RA_OF_ASC_NODE = 40.9076
ARG_OF_PERICENTER = 356.0931
MEAN_ANOMALY   = 4.0028

EPHEMERIS_TYPE = 0
CLASSIFICATION_TYPE = U
NORAD_CAT_ID   = 66909
ELEMENT_SET_NO = 999
REV_AT_EPOCH   = 478
BSTAR          = .16502022E-2
MEAN_MOTION_DOT = .113309E-2
MEAN_MOTION_DDOT = 0

CCSDS_OMM_VERS = 2.0
CREATION_DATE  = 
ORIGINATOR     = 

OBJECT_NAME    = 1998-067XW
OBJECT_ID      = 1998-067XW
CENTER_NAME    = EARTH
REF_FRAME      = TEME
TIME_SYSTEM    = UTC
MEAN_ELEMENT_THEORY = SGP/SGP4

EPOCH          = 2026-01-02T07:34:19.077312
MEAN_MOTION    = 15.54677962
ECCENTRICITY   = .00032762
INCLINATION    = 51.6308
RA_OF_ASC_NODE = 39.9393
ARG_OF_PERICENTER = 328.9879
MEAN_ANOMALY   = 31.0918

EPHEMERIS_TYPE = 0
CLASSIFICATION_TYPE = U
NORAD_CAT_ID   = 66910
ELEMENT_SET_NO = 999
REV_AT_EPOCH   = 481
BSTAR          = .1506499E-2
MEAN_MOTION_DOT = .102602E-2
MEAN_MOTION_DDOT = 0

CCSDS_OMM_VERS = 2.0
CREATION_DATE  = 
ORIGINATOR     = 

OBJECT_NAME    = 1998-067XX
OBJECT_ID      = 1998-067XX
CENTER_NAME    = EARTH
REF_FRAME      = TEME
TIME_SYSTEM    = UTC
MEAN_ELEMENT_THEORY = SGP/SGP4

EPOCH          = 2026-01-02T07:23:47.206464
MEAN_MOTION    = 15.55497722
ECCENTRICITY   = .00031321
INCLINATION    = 51.6314
RA_OF_ASC_NODE = 39.8911
ARG_OF_PERICENTER = 343.0646
MEAN_ANOMALY   = 17.0240

EPHEMERIS_TYPE = 0
CLASSIFICATION_TYPE = U
NORAD_CAT_ID   = 66911
ELEMENT_SET_NO = 999
REV_AT_EPOCH   = 480
BSTAR          = .17574592E-2
MEAN_MOTION_DOT = .123776E-2
MEAN_MOTION_DDOT = 0

CCSDS_OMM_VERS = 2.0
CREATION_DATE  = 
ORIGINATOR     = 

OBJECT_NAME    = 1998-067XY
OBJECT_ID      = 1998-067XY
CENTER_NAME    = EARTH
REF_FRAME      = TEME
TIME_SYSTEM    = UTC
MEAN_ELEMENT_THEORY = SGP/SGP4

EPOCH          = 2026-01-02T03:17:21.132960
MEAN_MOTION    = 15.53431066
ECCENTRICITY   = .00037726
INCLINATION    = 51.6316
RA_OF_ASC_NODE = 40.9983
ARG_OF_PERICENTER = 341.2098
MEAN_ANOMALY   = 18.8753

EPHEMERIS_TYPE = 0
CLASSIFICATION_TYPE = U
NORAD_CAT_ID   = 66912
ELEMENT_SET_NO = 999
REV_AT_EPOCH   = 477
BSTAR          = .12052835E-2
MEAN_MOTION_DOT = .78094E-3
MEAN_MOTION_DDOT = 0

